{
    "links": {
        "self": "http://www.neowsapp.com/rest/v1/neo/3780804?api_key=iIulBulltgU6a56xZRHN4H3l9WmuAYTsLGpBGhQ2"
    },
    "id": "3780804",
    "neo_reference_id": "3780804",
    "name": "(2017 QO16)",
    "designation": "2017 QO16",
    "nasa_jpl_url": "http://ssd.jpl.nasa.gov/sbdb.cgi?sstr=3780804",
    "absolute_magnitude_h": 25.0,
    "estimated_diameter": {
        "kilometers": {
            "estimated_diameter_min": 0.02658,
            "estimated_diameter_max": 0.0594346868
        },
        "meters": {
            "estimated_diameter_min": 26.58,
            "estimated_diameter_max": 59.4346868419
        },
        "miles": {
            "estimated_diameter_min": 0.0165160412,
            "estimated_diameter_max": 0.0369309908
        },
        "feet": {
            "estimated_diameter_min": 87.2047272,
            "estimated_diameter_max": 194.9956979785
        }
    },
    "is_potentially_hazardous_asteroid": false,
    "close_approach_data": [
        {
            "close_approach_date": "2017-08-19",
            "close_approach_date_full": "2017-Aug-19 18:32",
            "epoch_date_close_approach": 1503167520000,
            "relative_velocity": {
                "kilometers_per_second": "6.2545718631",
                "kilometers_per_hour": "22516.4587072675",
                "miles_per_hour": "13990.8518006352"
            },
            "miss_distance": {
                "astronomical": "0.1218623492",
                "lunar": "47.4044538388",
                "kilometers": "18230347.873516204",
                "miles": "11327812.8909394552"
            },
            "orbiting_body": "Earth"
        }
    ],
    "orbital_data": {
        "orbit_id": "2",
        "orbit_determination_date": "2017-08-24 06:19:14",
        "first_observation_date": "2017-08-17",
        "last_observation_date": "2017-08-23",
        "data_arc_in_days": 6,
        "observations_used": 16,
        "orbit_uncertainty": "8",
        "minimum_orbit_intersection": ".119878",
        "jupiter_tisserand_invariant": "3.583",
        "epoch_osculation": "2457984.5",
        "eccentricity": ".464424603396079",
        "semi_major_axis": "2.110647638053918",
        "inclination": "7.793364022015358",
        "ascending_node_longitude": "144.7287744526484",
        "orbital_period": "1120.010337131849",
        "perihelion_distance": "1.130410945841856",
        "perihelion_argument": "187.2881612541452",
        "aphelion_distance": "3.09088433026598",
        "perihelion_time": "2457989.334883168600",
        "mean_anomaly": "358.4459447533732",
        "mean_motion": ".3214256048045923",
        "equinox": "J2000",
        "orbit_class": {
            "orbit_class_type": "AMO",
            "orbit_class_description": "Near-Earth asteroid orbits similar to that of 1221 Amor",
            "orbit_class_range": "1.017 AU < q (perihelion) < 1.3 AU"
        }
    },
    "is_sentry_object": false
}